ONEWEB-0685             
1 54679U 22166AP  25106.61898644  .00000121  00000+0  26146-3 0  9993
2 54679  87.9280 329.0548 0002066  85.9649 274.1721 13.21825743115066
ONEWEB-0712             
1 54680U 22166AQ  25106.56507138  .00000145  00000+0  34690-3 0  9993
2 54680  87.9030 313.8106 0001979  73.7947 286.3402 13.16595937115929
ONEWEB-0714             
1 54681U 22166AR  25106.62527909  .00000031  00000+0  43975-4 0  9990
2 54681  87.9283 329.0445 0002030  81.8783 278.2582 13.21827832115187
ONEWEB-0532             
1 55140U 23004A   25106.49989164  .00000022  00000+0  24339-4 0  9996
2 55140  87.9017  90.8330 0002190  99.4480 260.6899 13.17648406111393
ONEWEB-0533             
1 55141U 23004B   25106.45308269  .00000213  00000+0  55742-3 0  9997
2 55141  87.8847  75.5592 0002138  81.3765 278.7606 13.12442876112083
ONEWEB-0541             
1 55142U 23004C   25106.53075848  .00000488  00000+0  13408-2 0  9997
2 55142  87.8792 106.0982 0001963  89.4276 270.7077 13.11417660110025
ONEWEB-0543             
1 55143U 23004D   25106.58658980  .00000123  00000+0  27892-3 0  9996
2 55143  87.9113  60.3238 0002049  72.8315 287.3041 13.18685915113470
ONEWEB-0544             
1 55144U 23004E   25106.58026768  .00000108  00000+0  24121-3 0  9995
2 55144  87.9116  60.3140 0001810  80.4697 279.6639 13.18686084113474
